FENGYUN 1C DEB          
1 30986U 99025BCC 17339.32071966  .00000430  00000-0  21584-3 0  9998
2 30986  98.8492  10.3188 0052850  53.0801   7.8291 14.20991623556411
